<?xml version="1.0" encoding="utf-8" ?>
<kml xmlns="http://www.opengis.net/kml/2.2">
<Document id="root_doc">
<Schema name="mdg_admbnda_adm3_bngrc_ocha_20181031" id="mdg_admbnda_adm3_bngrc_ocha_20181031">
	<SimpleField name="ADM0_PCODE" type="string"></SimpleField>
	<SimpleField name="ADM0_EN" type="string"></SimpleField>
	<SimpleField name="ADM1_PCODE" type="string"></SimpleField>
	<SimpleField name="ADM1_EN" type="string"></SimpleField>
	<SimpleField name="ADM1_TYPE" type="string"></SimpleField>
	<SimpleField name="ADM2_PCODE" type="string"></SimpleField>
	<SimpleField name="ADM2_EN" type="string"></SimpleField>
	<SimpleField name="ADM2_TYPE" type="string"></SimpleField>
	<SimpleField name="ADM3_PCODE" type="string"></SimpleField>
	<SimpleField name="ADM3_EN" type="string"></SimpleField>
	<SimpleField name="ADM3_TYPE" type="string"></SimpleField>
	<SimpleField name="PROV_CODE_" type="float"></SimpleField>
	<SimpleField name="OLD_PROVIN" type="string"></SimpleField>
	<SimpleField name="PROV_TYPE" type="string"></SimpleField>
	<SimpleField name="NOTES" type="string"></SimpleField>
	<SimpleField name="SOURCE" type="string"></SimpleField>
</Schema>
<Folder><name>mdg_admbnda_adm3_bngrc_ocha_20181031</name>
  <Placemark id="mdg_admbnda_adm3_bngrc_ocha_20181031.1">
	<Style><LineStyle><color>ff0000ff</color></LineStyle><PolyStyle><fill>0</fill></PolyStyle></Style>
	<ExtendedData><SchemaData schemaUrl="#mdg_admbnda_adm3_bngrc_ocha_20181031">
		<SimpleData name="ADM0_PCODE">MG</SimpleData>
		<SimpleData name="ADM0_EN">Madagascar</SimpleData>
		<SimpleData name="ADM1_PCODE">MG54</SimpleData>
		<SimpleData name="ADM1_EN">Menabe</SimpleData>
		<SimpleData name="ADM1_TYPE">Region</SimpleData>
		<SimpleData name="ADM2_PCODE">MG54511</SimpleData>
		<SimpleData name="ADM2_EN">Miandrivazo</SimpleData>
		<SimpleData name="ADM2_TYPE">District</SimpleData>
		<SimpleData name="ADM3_PCODE">MG54511072</SimpleData>
		<SimpleData name="ADM3_EN">Isalo</SimpleData>
		<SimpleData name="ADM3_TYPE">Commune</SimpleData>
		<SimpleData name="PROV_CODE_">5</SimpleData>
		<SimpleData name="OLD_PROVIN">Toliary</SimpleData>
		<SimpleData name="PROV_TYPE">Old Provinces/Faritany dissolved in 2007</SimpleData>
		<SimpleData name="SOURCE">BNGRC (National Disaster Management Office) Fokontany (adm4)  polygons cleaned and merged by OCHA in 2018</SimpleData>
	</SchemaData></ExtendedData>
      <MultiGeometry><Polygon><outerBoundaryIs><LinearRing><coordinates>45.320703963,-19.6823877899998 45.3231265500002,-19.6832461279999 45.3256935270001,-19.684010435 45.3283222000002,-19.6841752289999 45.3306588030002,-19.684321807 45.3330119660001,-19.684053865 45.335903306,-19.683960901 45.3378247140002,-19.683999214 45.3395718970001,-19.6838331009999 45.3405876450001,-19.6835405039998 45.3412400150001,-19.6833230679999 45.3457682100002,-19.6830608649998 45.3511126730002,-19.6824137419999 45.35393062,-19.682056261 45.3557034660002,-19.6819709139999 45.3583711740001,-19.6827647289999 45.360479233,-19.683740421 45.3624647029999,-19.6850841949998 45.3650297090001,-19.687166826 45.3682238320001,-19.6897592609999 45.3693604320002,-19.690892308 45.3699633440002,-19.6918391719999 45.3705148710001,-19.693522845 45.3710801530002,-19.6953661079999 45.3712574400001,-19.6959441999999 45.371639189,-19.697557952 45.3753554840001,-19.697341587 45.3768338070001,-19.698038291 45.3783862690001,-19.6984360549999 45.3796733940002,-19.6983718989999 45.3808408279999,-19.6979613479999 45.3814752800002,-19.6971573539998 45.382723637,-19.6947669339999 45.3834762370001,-19.6929410939999 45.3842688700001,-19.691018105 45.3853678610001,-19.689524887 45.3871437960001,-19.6886558109999 45.3899137900002,-19.6882054099999 45.3922943600001,-19.687984288 45.39370335,-19.6878281029998 45.3967826860002,-19.6869952619999 45.3981233850002,-19.6863328679999 45.4009499990001,-19.685470003 45.4022299990002,-19.686830003 45.4036904199999,-19.688598777 45.4059563540002,-19.6907711499998 45.4075996180001,-19.691971941 45.409005641,-19.693394742 45.4117682620002,-19.6941131139999 45.4143859940001,-19.695343567 45.4153294170001,-19.6962453379999 45.4164400880001,-19.6978614509998 45.417697886,-19.699132708 45.4186154170002,-19.6993147719999 45.4186443690001,-19.6993205159999 45.4197631020002,-19.6988636779999 45.4205215900001,-19.6973694389999 45.4207920490002,-19.696518054 45.4213028010001,-19.696289355 45.4216164350001,-19.696820384 45.4220761670002,-19.6972596059999 45.4229014180002,-19.697377795 45.4242377140001,-19.6972209599999 45.426302454,-19.6969750109999 45.4277100850002,-19.6971873919999 45.4286788930001,-19.6978587789999 45.4294044050001,-19.698621434 45.4297244870001,-19.699984412 45.4327979000001,-19.7002457089999 45.4336729070001,-19.7000873529999 45.4340403570001,-19.69921333 45.4344069660002,-19.6985697559998 45.4352583570002,-19.698227123 45.4359869620002,-19.698160575 45.4369324770001,-19.6985555799999 45.4394038590002,-19.7000610659999 45.439744084,-19.7000160699999 45.4405719880001,-19.699420231 45.4412039440002,-19.6992147389999 45.4421743260002,-19.699448872 45.4432166650002,-19.699959044 45.4435323070002,-19.6999833819999 45.4439469350002,-19.6994778749999 45.4444100380001,-19.699041548 45.4448475950001,-19.698928169 45.4467665510001,-19.698773248 45.4487349230002,-19.6983881189999 45.4502425310001,-19.6978637489999 45.4516546860002,-19.6968547689999 45.4526778640001,-19.6959136899999 45.4532128970002,-19.6957545049999 45.4548152000002,-19.6954973839999 45.4557265670002,-19.694689947 45.4569381940001,-19.6944900379999 45.457277515,-19.6944340529998 45.4579115670001,-19.6945154549999 45.4588170980002,-19.6948220099999 45.4595069380001,-19.6952934539999 45.4600082820002,-19.696067193 45.460579954,-19.6967017959999 45.4614780230002,-19.6966179889999 45.4622557920001,-19.6966046949998 45.4632571900002,-19.6968411419999 45.4638880530001,-19.696761523 45.464621977,-19.69720644 45.465001487,-19.697754897 45.4658676010001,-19.698522119 45.4664727990001,-19.6983971659998 45.4670018620002,-19.6980893539999 45.4673704190001,-19.698290168 45.4676764500001,-19.6990210339999 45.4680032720001,-19.699567874 45.468358378,-19.700321034 45.4686286400002,-19.7016967619998 45.4688477040002,-19.7029581169999 45.4695452410001,-19.7037978449999 45.4702337740001,-19.7042003299999 45.4714171590001,-19.7050313639999 45.4722134830002,-19.705961422 45.472837983,-19.706801875 45.474070473,-19.7076551859999 45.4753650240002,-19.707955268 45.4765331380001,-19.7080044389999 45.4778701700001,-19.707982202 45.4793729050002,-19.707726427 45.4803402960002,-19.710714981 45.480852684,-19.712703346 45.4814699180001,-19.7146922659999 45.4819817439999,-19.7167799069999 45.4823910960001,-19.7184698739999 45.4830101320001,-19.7201609529999 45.4837340200002,-19.721852586 45.4843507360002,-19.723940776 45.485379999,-19.7261000029999 45.4854764420001,-19.7286129889999 45.486095547,-19.7303040579999 45.4863977860001,-19.7323905779999 45.4865934280002,-19.7347743789999 45.4872055460002,-19.7376567909999 45.487192087,-19.7399402039999 45.4872299990001,-19.743050003 45.488628449,-19.745309012 45.4900876620001,-19.7468059359999 45.4908169870001,-19.7476040319999 45.4919622520001,-19.749000006 45.492042772,-19.7493925069999 45.4921322480001,-19.7498286649999 45.4921500990001,-19.74991568 45.4923700380001,-19.750987788 45.492991043,-19.752380999 45.4935060360001,-19.7539722139999 45.4934967310002,-19.7555606759998 45.4934856800002,-19.7574469739999 45.493266646,-19.7590343339999 45.4924160890001,-19.7610155019999 45.4915631770002,-19.7633937799999 45.490711407,-19.7655734949999 45.4901771410001,-19.7672584709999 45.4897489010002,-19.76874544 45.4890048710001,-19.7704293049999 45.4882590680001,-19.772411002 45.4875097320001,-19.7749883679999 45.4869759840002,-19.7765740519999 45.4863326560001,-19.7789534089999 45.4851299989999,-19.7811300029998 45.4837914980001,-19.783010485 45.4826295790002,-19.784394255 45.4815725200002,-19.7857785759999 45.4797783140001,-19.7876553679999 45.4785096670002,-19.7893363849999 45.477242771,-19.790719558 45.4754490510001,-19.7924970249999 45.4741815080001,-19.7939794519999 45.4720799990002,-19.795280003 45.4695647110001,-19.794252469 45.4673704750001,-19.7928506869999 45.4654915320002,-19.791351305 45.4640303570001,-19.790152013 45.4617331510001,-19.788451761 45.4595390650001,-19.787049886 45.4579699990002,-19.7857800029999 45.4566247740001,-19.7833605809999 45.4561088560001,-19.7819678239999 45.455488069,-19.7805744919999 45.45445082,-19.7786824719999 45.453835521,-19.7763956329999 45.4524818750001,-19.774799713 45.4508075520002,-19.7741948339998 45.448402186,-19.7730895089999 45.4455965640002,-19.771489996 45.443145176,-19.770859631 45.4382956830001,-19.7683784699999 45.4340069040001,-19.765368796 45.4296973910002,-19.761599191 45.4256529250002,-19.7583602349999 45.4239793410001,-19.7577091379999 45.4234737730002,-19.7576645159999 45.4223520900002,-19.7575655149999 45.4209911329999,-19.7577679379999 45.4198942800001,-19.758708402 45.4189194000002,-19.7595111639999 45.4179368960001,-19.7628089999999 45.4165235830001,-19.76518371 45.415533902,-19.7668989479999 45.4145416750001,-19.7690112889999 45.4126699990001,-19.7710000029999 45.410050368,-19.7716331279999 45.4080902460002,-19.7720190199998 45.4050106440001,-19.7725308299999 45.4017886380001,-19.773438886 45.3989886490002,-19.773952202 45.3961895000002,-19.7743331049999 45.3935284490001,-19.7749795149999 45.3896512910002,-19.776242737 45.3884588330001,-19.7766989369998 45.386513221,-19.777175573 45.3847118180001,-19.7780439009998 45.384052735,-19.7788245939998 45.3838551750002,-19.779606865 45.3836325370001,-19.780573691 45.3832890880002,-19.7813093529998 45.3821432170001,-19.782295602 45.3813137450001,-19.7831215979999 45.3810416890001,-19.784295425 45.381325845,-19.786047532 45.381368068,-19.7875677609999 45.3808548250001,-19.7883487339999 45.3802177080001,-19.789590448 45.3795785820001,-19.7914077169999 45.3790162330002,-19.7922115529998 45.3777739070001,-19.793013064 45.3750714530001,-19.7942928129999 45.3732954970001,-19.7948392119998 45.3713047090001,-19.794439908 45.3681706940002,-19.7943353899999 45.3661283200001,-19.7946502389999 45.3651050930001,-19.7952914259999 45.3638840270002,-19.7967374429999 45.3630291160002,-19.797816808 45.3619572350001,-19.798411367 45.3612742680002,-19.7990308479999 45.3610034560001,-19.799858967 45.3604136510001,-19.801446003 45.3602855940001,-19.8029657729999 45.360157059,-19.8046007669999 45.3599323490002,-19.805982135 45.3595405460002,-19.8066948619999 45.3584425179999,-19.8077501459999 45.3568809700001,-19.8092177839999 45.3553182770002,-19.8109395759999 45.3546063020001,-19.812617921 45.3538985950001,-19.8133524479999 45.3530460920002,-19.8137867329999 45.3522911870002,-19.8141295359999 45.3517541910002,-19.814726138 45.3502374780002,-19.81700057 45.3497468750002,-19.8180583529999 45.3488677530001,-19.819068022 45.3479158320001,-19.81998574 45.3471589510001,-19.8207888489998 45.3469112100001,-19.821893852 45.3471009810001,-19.822907756 45.3474622590002,-19.8237154089999 45.3478229280001,-19.8245693739999 45.3476012990001,-19.8252130669999 45.346869346,-19.8259011 45.3455280220001,-19.82697854 45.3450378590001,-19.827874767 45.3448145790001,-19.8289335989999 45.3435661360001,-19.8310017449999 45.3426372940002,-19.8321957769999 45.3420371620001,-19.83296775 45.3405841440001,-19.834836803 45.3398738420001,-19.8361005019999 45.3388966280001,-19.8372021479998 45.3376797299999,-19.8375657739999 45.3365627220001,-19.8373770329999 45.3355928340001,-19.8368435119999 45.3345481790001,-19.836724113 45.3333799050001,-19.83713376 45.3322816660001,-19.83811996 45.3313247310002,-19.8401660899999 45.3286959230001,-19.8464206009999 45.3244541010002,-19.854580386 45.3229822140001,-19.8575919469999 45.3220543820001,-19.858509665 45.318324348,-19.86091289 45.3159843770002,-19.8622848969999 45.3148863360001,-19.863202074 45.3143444740001,-19.8647886719999 45.3135748790001,-19.868240603 45.3128317660002,-19.8712323589999 45.3120470740001,-19.8727033269998 45.3107289450002,-19.8738721329999 45.309341526,-19.874280796 45.3080519520001,-19.87452909 45.3051120900002,-19.8741941929998 45.3040384410001,-19.875018821 45.304083126,-19.8759171829998 45.3045653560001,-19.8767025289999 45.3048282030001,-19.8776943399999 45.304967493,-19.8791457069999 45.304183875,-19.8787628709999 45.3026734130002,-19.878243814 45.30113643,-19.877425216 45.299306275,-19.8764019659999 45.2979597350002,-19.874961547 45.2963943960001,-19.873522545 45.294851093,-19.87176059 45.2931576520002,-19.8693334209999 45.2921740890001,-19.8676603129999 45.2909913350001,-19.8652522109998 45.2900516030001,-19.8628428359999 45.2889877079999,-19.86001977 45.2882225160002,-19.8582531529999 45.2872135270001,-19.8563962869998 45.2860805150002,-19.8541488849999 45.2858752550001,-19.8525169029999 45.2854052750001,-19.851254873 45.2846627130001,-19.8492579379999 45.283555456,-19.8472174149999 45.2826455180001,-19.845589919 45.2818060080001,-19.8435940419999 45.280719789,-19.841047552 45.2799076150001,-19.8394878899999 45.279148761,-19.8386876999999 45.2776386370002,-19.8381452839999 45.2762021390001,-19.837740586 45.2743262290002,-19.837061902 45.2728142630002,-19.836243797 45.2712031510001,-19.835149397 45.2700305120001,-19.8342137369999 45.2682947930001,-19.832614671 45.2670501540001,-19.8318169039999 45.265001985,-19.8307947119999 45.262904977,-19.8296806739999 45.2604171390001,-19.8282703309999 45.2592692189999,-19.8273573569999 45.2581672960002,-19.8260758479998 45.2575773090001,-19.82502138 45.256911852,-19.8235992749999 45.2563426680002,-19.821991976 45.2556767190001,-19.820477796 45.2548902610002,-19.8190797379999 45.2543711710002,-19.8177252409998 45.2540242820002,-19.8166927029999 45.2533085790002,-19.81497146 45.2527978920002,-19.8139773739999 45.2516760210002,-19.8135965939998 45.250988954,-19.8128899609999 45.250449442,-19.8123661779999 45.249547185,-19.8120292029999 45.248359297,-19.812385062 45.2476114500002,-19.81303529 45.2474502530001,-19.814048081 45.2479678870001,-19.814825335 45.2489246430001,-19.8157822939999 45.2500994760002,-19.8166683989999 45.251007994,-19.817695066 45.2511128810001,-19.818522103 45.2508495430002,-19.8189840789999 45.2507569909999,-19.8195138369999 45.250760792,-19.8199273149999 45.250594865,-19.820411965 45.2498190180001,-19.8206485629998 45.248749418,-19.820658405 45.2467999530001,-19.8201235429999 45.2458948060001,-19.819488302 45.2452294900001,-19.8185055909999 45.2441742670001,-19.8173881089999 45.2430202800001,-19.8161112459999 45.2423061020002,-19.8150824479998 45.2417171610002,-19.814467372 45.2409119020001,-19.814129307 45.2400836570002,-19.813952624 45.2394489270001,-19.813636592 45.2389783740002,-19.8126749319999 45.2380184820001,-19.8113501979998 45.2373745060002,-19.8099993369999 45.236873879,-19.8083946989999 45.2362035990002,-19.8068137729999 45.2354858640002,-19.8053951969999 45.2345515690001,-19.80420787 45.234252263,-19.8033365919998 45.2345884320002,-19.8028739999999 45.2357058710002,-19.802795089 45.2371934540001,-19.8033337479999 45.2401225570001,-19.804710078 45.2425846790002,-19.8054930009999 45.2442175550001,-19.8059614039998 45.24529097,-19.806388223 45.246432216,-19.8062404939998 45.2470823310002,-19.8055675919999 45.2474582039999,-19.8040930709999 45.2475161480002,-19.80243682 45.2469122390002,-19.8001435629999 45.246533674,-19.7986064119999 45.24618431,-19.797597566 45.2455713750001,-19.7970055019999 45.2450303190001,-19.796297561 45.2446081580002,-19.7952899229998 45.243795549,-19.7941475109999 45.2425953880002,-19.793123383 45.2409345750001,-19.792218736 45.2401532150001,-19.7918119209999 45.2395631420001,-19.7910810429999 45.23965274,-19.7902298849999 45.2400857560002,-19.7896973269998 45.2415656830001,-19.78940786 45.2434341320001,-19.7890695729998 45.2442074090002,-19.7885567819999 45.2453200210001,-19.7879490969999 45.2465031290001,-19.7870877009999 45.2477169100002,-19.7869161549999 45.2492266830002,-19.7872244079999 45.2502986160001,-19.7875139309999 45.2510247260002,-19.7871623369999 45.251383354,-19.7865157269999 45.2511836880002,-19.7859196409999 45.2505695410001,-19.785212362 45.2485633350002,-19.7837355879998 45.2461997190002,-19.7830669419999 45.245030682,-19.782801601 45.2434258640001,-19.782723694 45.2424296200001,-19.7827328629999 45.241529542,-19.7826489089998 45.24101433,-19.782124698 45.240958698,-19.7813431709999 45.2413918100002,-19.7808337669998 45.2426041920002,-19.7805238629999 45.2442576180002,-19.7806015359999 45.2461572820001,-19.7810671729999 45.2486936650001,-19.7820103429999 45.2507615490002,-19.7822443389998 45.251877768,-19.7820274949999 45.2524048240002,-19.781195039 45.2524587590001,-19.7791027099998 45.252203278,-19.7777025069999 45.2516592620001,-19.7766726159999 45.2507567740002,-19.7763130569999 45.249883755,-19.7765275539999 45.2483616890002,-19.7775296259998 45.2464943220002,-19.7779832009999 45.2451792990001,-19.7776959929999 45.2441755160002,-19.7768776519999 45.2437527320001,-19.7758005349999 45.243835935,-19.7754667099999 45.2440341000001,-19.7746716269999 45.2448535100001,-19.7738823739999 45.2474482050001,-19.7732613749999 45.2489554140002,-19.7732939749998 45.2500951820002,-19.7730309809999 45.2532671600001,-19.7717150299999 45.2541852270001,-19.7711319809998 45.2543465860001,-19.7701649319998 45.2536352660002,-19.769412401 45.2522205990001,-19.7688506469999 45.2501501560001,-19.7683404549999 45.2491002100001,-19.767798037 45.2491653240002,-19.766900394 45.249451116,-19.7662544319999 45.250806521,-19.765667521 45.2536696060002,-19.765158911 45.2554357330002,-19.7642922629998 45.2564720750001,-19.763317425 45.2579804650001,-19.7608206519998 45.2591753340001,-19.7586030879999 45.2598921300001,-19.757262943 45.260783835,-19.756232339 45.2614207370002,-19.7559416779998 45.2617385840001,-19.755644747 45.2620223350002,-19.755379666 45.2636701280002,-19.7546838629999 45.2642367070001,-19.7553619779998 45.2648486690001,-19.7560759719998 45.2656614610002,-19.7569437819999 45.2668690380002,-19.7579581969999 45.2680078050002,-19.7584694579999 45.2694481940001,-19.75922273 45.2709578920001,-19.7598815499999 45.2721352240002,-19.760138298 45.2729457540001,-19.760338997 45.2745340000002,-19.760535137 45.275529926,-19.7604132929999 45.27639737,-19.760307164 45.2778463149999,-19.760048249 45.2797300350002,-19.759727175 45.2814964180002,-19.7595024739999 45.2840111780001,-19.7585381259999 45.2856173759999,-19.7573532709998 45.2868119290001,-19.7562058619999 45.2885115350001,-19.754925558 45.289849888,-19.7537276489999 45.2907357520002,-19.752775362 45.2912883710001,-19.7519966039998 45.2915718930001,-19.7511811039998 45.2916433160001,-19.7505348289999 45.291725259,-19.7495423779999 45.2918708960001,-19.748318189 45.2920305650001,-19.7468404799999 45.2921968750002,-19.7443043179998 45.2921150960001,-19.74225967 45.2918663450002,-19.7402907719999 45.2917362000002,-19.7394675459998 45.2916862290002,-19.7376061059999 45.2916558720001,-19.7356290009999 45.2917532460002,-19.7338086049999 45.2919153400001,-19.731778504 45.291997645,-19.7301884629999 45.2919955680001,-19.728301911 45.2919540410002,-19.7260496599999 45.291937981,-19.725037944 45.291793166,-19.7238469179999 45.291615619,-19.7226842619999 45.2915626420002,-19.7223373439999 45.2915938250002,-19.720680326 45.2917562540002,-19.7192709769999 45.291740571,-19.7176616699999 45.2918987410002,-19.7161376329999 45.2922448620001,-19.7138483169999 45.2927109940002,-19.7109102079999 45.2930161730001,-19.7094266439999 45.2931617520002,-19.7082024509999 45.2934686160002,-19.7061444619999 45.2936246940001,-19.7045746569999 45.293639102,-19.702504072 45.2936377230002,-19.7006406809999 45.2938116370002,-19.698909446 45.2939208450002,-19.697387353 45.294193014,-19.695675383 45.2943270360001,-19.694773633 45.2944781720002,-19.6936867269998 45.2947311550001,-19.6921135819999 45.2950103510001,-19.6905852259999 45.2952548820002,-19.689403456 45.2954847220001,-19.687853885 45.2956610260002,-19.6867897309999 45.2958660400001,-19.6858392899999 45.2962662360002,-19.6849047739999 45.2967651170001,-19.684012682 45.2973408840001,-19.683209755 45.297818035,-19.6829857189999 45.298607927,-19.6826811989999 45.299882374,-19.683088046 45.3003653910001,-19.682919394 45.3015502960002,-19.6825789519999 45.3033437880001,-19.6822739749999 45.3051851430001,-19.6819455579999 45.3067588760002,-19.6815984929999 45.3109523530002,-19.680933475 45.3125040890001,-19.680702011 45.3140108470001,-19.680677548 45.3154698710002,-19.680700219 45.3173979150002,-19.681106502 45.3191132100001,-19.681838479 45.320703963,-19.6823877899998</coordinates></LinearRing></outerBoundaryIs></Polygon></MultiGeometry>
  </Placemark>
</Folder>
</Document></kml>
